{
  "type": "FeatureCollection",
  "features": [
    {
      "type": "Feature",
      "properties": {
        "norad_id": 66849,
        "name": "STARLINK-36102",
        "group": "last-30-days",
        "lat": -42.802043444464935,
        "lon": -12.760378892888623,
        "alt_km": 356.29407936184816,
        "timestamp": "2025-12-21T03:56:49.616638+00:00",
        "meta_object_name": "STARLINK-36102",
        "meta_object_id": "2025-281B",
        "meta_epoch": "2025-12-20T20:00:01.999008",
        "meta_mean_motion": 15.7313409,
        "meta_eccentricity": 0.000109,
        "meta_inclination": 43.0008,
        "meta_ra_of_asc_node": 72.853,
        "meta_arg_of_pericenter": 273.7394,
        "meta_mean_anomaly": 284.3627,
        "meta_ephemeris_type": 0,
        "meta_classification_type": "U",
        "meta_norad_cat_id": 66849,
        "meta_element_set_no": 999,
        "meta_rev_at_epoch": 269,
        "meta_bstar": -0.015598,
        "meta_mean_motion_dot": -0.01953643,
        "meta_mean_motion_ddot": 0,
        "tle_line1": "1 66849U 25281B   25354.83335647 -.01953643  00000+0 -15598-1 0  9990",
        "tle_line2": "2 66849  43.0008  72.8530 0001090 273.7394 284.3627 15.73134090  2692"
      },
      "geometry": {
        "type": "Point",
        "coordinates": [
          -12.760378892888623,
          -42.802043444464935
        ]
      }
    },
    {
      "type": "Feature",
      "properties": {
        "norad_id": 66850,
        "name": "STARLINK-36105",
        "group": "last-30-days",
        "lat": -42.62734016740561,
        "lon": -10.170911403997481,
        "alt_km": 356.3349506714294,
        "timestamp": "2025-12-21T03:56:49.616647+00:00",
        "meta_object_name": "STARLINK-36105",
        "meta_object_id": "2025-281C",
        "meta_epoch": "2025-12-20T20:00:01.999008",
        "meta_mean_motion": 15.73135729,
        "meta_eccentricity": 0.000103,
        "meta_inclination": 43.0006,
        "meta_ra_of_asc_node": 72.8483,
        "meta_arg_of_pericenter": 278.0514,
        "meta_mean_anomaly": 281.9688,
        "meta_ephemeris_type": 0,
        "meta_classification_type": "U",
        "meta_norad_cat_id": 66850,
        "meta_element_set_no": 999,
        "meta_rev_at_epoch": 269,
        "meta_bstar": -0.015638,
        "meta_mean_motion_dot": -0.01958153,
        "meta_mean_motion_ddot": 0,
        "tle_line1": "1 66850U 25281C   25354.83335647 -.01958153  00000+0 -15638-1 0  9998",
        "tle_line2": "2 66850  43.0006  72.8483 0001030 278.0514 281.9688 15.73135729  2695"
      },
      "geometry": {
        "type": "Point",
        "coordinates": [
          -10.170911403997481,
          -42.62734016740561
        ]
      }
    },
    {
      "type": "Feature",
      "properties": {
        "norad_id": 66851,
        "name": "STARLINK-36094",
        "group": "last-30-days",
        "lat": -42.39480229001804,
        "lon": -7.60120338963877,
        "alt_km": 356.2622167623431,
        "timestamp": "2025-12-21T03:56:49.616657+00:00",
        "meta_object_name": "STARLINK-36094",
        "meta_object_id": "2025-281D",
        "meta_epoch": "2025-12-20T20:00:01.999008",
        "meta_mean_motion": 15.73139195,
        "meta_eccentricity": 0.0001096,
        "meta_inclination": 43.0005,
        "meta_ra_of_asc_node": 72.843,
        "meta_arg_of_pericenter": 274.1878,
        "meta_mean_anomaly": 287.74,
        "meta_ephemeris_type": 0,
        "meta_classification_type": "U",
        "meta_norad_cat_id": 66851,
        "meta_element_set_no": 999,
        "meta_rev_at_epoch": 269,
        "meta_bstar": -0.0156,
        "meta_mean_motion_dot": -0.01954265,
        "meta_mean_motion_ddot": 0,
        "tle_line1": "1 66851U 25281D   25354.83335647 -.01954265  00000+0 -15600-1 0  9998",
        "tle_line2": "2 66851  43.0005  72.8430 0001096 274.1878 287.7400 15.73139195  2696"
      },
      "geometry": {
        "type": "Point",
        "coordinates": [
          -7.60120338963877,
          -42.39480229001804
        ]
      }
    },
    {
      "type": "Feature",
      "properties": {
        "norad_id": 66852,
        "name": "STARLINK-35992",
        "group": "last-30-days",
        "lat": -42.10533938566392,
        "lon": -5.0525980781178195,
        "alt_km": 356.20193073652626,
        "timestamp": "2025-12-21T03:56:49.616666+00:00",
        "meta_object_name": "STARLINK-35992",
        "meta_object_id": "2025-281E",
        "meta_epoch": "2025-12-20T20:00:01.999008",
        "meta_mean_motion": 15.73127837,
        "meta_eccentricity": 0.0001174,
        "meta_inclination": 43.0005,
        "meta_ra_of_asc_node": 72.839,
        "meta_arg_of_pericenter": 278.8568,
        "meta_mean_anomaly": 284.994,
        "meta_ephemeris_type": 0,
        "meta_classification_type": "U",
        "meta_norad_cat_id": 66852,
        "meta_element_set_no": 999,
        "meta_rev_at_epoch": 269,
        "meta_bstar": -0.015493,
        "meta_mean_motion_dot": -0.01902663,
        "meta_mean_motion_ddot": 0,
        "tle_line1": "1 66852U 25281E   25354.83335647 -.01902663  00000+0 -15493-1 0  9994",
        "tle_line2": "2 66852  43.0005  72.8390 0001174 278.8568 284.9940 15.73127837  2694"
      },
      "geometry": {
        "type": "Point",
        "coordinates": [
          -5.0525980781178195,
          -42.10533938566392
        ]
      }
    },
    {
      "type": "Feature",
      "properties": {
        "norad_id": 66853,
        "name": "STARLINK-35986",
        "group": "last-30-days",
        "lat": -41.75886949779221,
        "lon": -2.5240227312297283,
        "alt_km": 356.1181878046673,
        "timestamp": "2025-12-21T03:56:49.616677+00:00",
        "meta_object_name": "STARLINK-35986",
        "meta_object_id": "2025-281F",
        "meta_epoch": "2025-12-20T20:00:01.999008",
        "meta_mean_motion": 15.73136824,
        "meta_eccentricity": 0.0001271,
        "meta_inclination": 43.0005,
        "meta_ra_of_asc_node": 72.8338,
        "meta_arg_of_pericenter": 276.2029,
        "meta_mean_anomaly": 289.5598,
        "meta_ephemeris_type": 0,
        "meta_classification_type": "U",
        "meta_norad_cat_id": 66853,
        "meta_element_set_no": 999,
        "meta_rev_at_epoch": 269,
        "meta_bstar": -0.015573,
        "meta_mean_motion_dot": -0.01951284,
        "meta_mean_motion_ddot": 0,
        "tle_line1": "1 66853U 25281F   25354.83335647 -.01951284  00000+0 -15573-1 0  9997",
        "tle_line2": "2 66853  43.0005  72.8338 0001271 276.2029 289.5598 15.73136824  2695"
      },
      "geometry": {
        "type": "Point",
        "coordinates": [
          -2.5240227312297283,
          -41.75886949779221
        ]
      }
    },
    {
      "type": "Feature",
      "properties": {
        "norad_id": 66854,
        "name": "STARLINK-36087",
        "group": "last-30-days",
        "lat": -41.35777763858959,
        "lon": -0.02699269338884132,
        "alt_km": 356.1176335841137,
        "timestamp": "2025-12-21T03:56:49.616687+00:00",
        "meta_object_name": "STARLINK-36087",
        "meta_object_id": "2025-281G",
        "meta_epoch": "2025-12-20T20:00:01.999008",
        "meta_mean_motion": 15.73132931,
        "meta_eccentricity": 0.0001258,
        "meta_inclination": 43.0005,
        "meta_ra_of_asc_node": 72.8288,
        "meta_arg_of_pericenter": 274.9877,
        "meta_mean_anomaly": 292.6939,
        "meta_ephemeris_type": 0,
        "meta_classification_type": "U",
        "meta_norad_cat_id": 66854,
        "meta_element_set_no": 999,
        "meta_rev_at_epoch": 269,
        "meta_bstar": -0.015531,
        "meta_mean_motion_dot": -0.01946283,
        "meta_mean_motion_ddot": 0,
        "tle_line1": "1 66854U 25281G   25354.83335647 -.01946283  00000+0 -15531-1 0  9995",
        "tle_line2": "2 66854  43.0005  72.8288 0001258 274.9877 292.6939 15.73132931  2690"
      },
      "geometry": {
        "type": "Point",
        "coordinates": [
          -0.02699269338884132,
          -41.35777763858959
        ]
      }
    },
    {
      "type": "Feature",
      "properties": {
        "norad_id": 66855,
        "name": "STARLINK-36090",
        "group": "last-30-days",
        "lat": -40.90357601778438,
        "lon": 2.4359116646033425,
        "alt_km": 356.13322506947316,
        "timestamp": "2025-12-21T03:56:49.616697+00:00",
        "meta_object_name": "STARLINK-36090",
        "meta_object_id": "2025-281H",
        "meta_epoch": "2025-12-20T20:00:01.999008",
        "meta_mean_motion": 15.73129222,
        "meta_eccentricity": 0.0001207,
        "meta_inclination": 43.0006,
        "meta_ra_of_asc_node": 72.8238,
        "meta_arg_of_pericenter": 276.8496,
        "meta_mean_anomaly": 292.7506,
        "meta_ephemeris_type": 0,
        "meta_classification_type": "U",
        "meta_norad_cat_id": 66855,
        "meta_element_set_no": 999,
        "meta_rev_at_epoch": 257,
        "meta_bstar": -0.015488,
        "meta_mean_motion_dot": -0.01902228,
        "meta_mean_motion_ddot": 0,
        "tle_line1": "1 66855U 25281H   25354.83335647 -.01902228  00000+0 -15488-1 0  9998",
        "tle_line2": "2 66855  43.0006  72.8238 0001207 276.8496 292.7506 15.73129222  2576"
      },
      "geometry": {
        "type": "Point",
        "coordinates": [
          2.4359116646033425,
          -40.90357601778438
        ]
      }
    }
  ]
}